$$SOE
2461302.500000000, A.D. 2026-Sep-19 00:00:00.0000, -1.515943975166484E+08, 5.630733225758189E+06, -8.272466334803567E+06,
2461309.500000000, A.D. 2026-Sep-26 00:00:00.0000, -1.540119296204302E+08, -9.881116011205485E+06, -3.227463488023821E+06,
2461316.500000000, A.D. 2026-Oct-03 00:00:00.0000, -1.543976285534903E+08, -2.526407483400301E+07, 1.860616132248545E+06,
2461323.500000000, A.D. 2026-Oct-10 00:00:00.0000, -1.528271522948393E+08, -4.032811903538544E+07, 6.925520396684492E+06,
2461330.500000000, A.D. 2026-Oct-17 00:00:00.0000, -1.493837846480604E+08, -5.489886652566975E+07, 1.190586522928633E+07,
2461337.500000000, A.D. 2026-Oct-24 00:00:00.0000, -1.441569931915379E+08, -6.881490059373417E+07, 1.674430738215487E+07,
2461344.500000000, A.D. 2026-Oct-31 00:00:00.0000, -1.372417046278159E+08, -8.192540027878231E+07, 2.138678871760300E+07,
2461351.500000000, A.D. 2026-Nov-07 00:00:00.0000, -1.287381581351792E+08, -9.408807944300143E+07, 2.578185840283646E+07,
2461358.500000000, A.D. 2026-Nov-14 00:00:00.0000, -1.187522429671791E+08, -1.051674265257707E+08, 2.988007466162370E+07,
2461365.500000000, A.D. 2026-Nov-21 00:00:00.0000, -1.073962648607543E+08, -1.150332387066243E+08, 3.363348686915617E+07,
2461372.500000000, A.D. 2026-Nov-28 00:00:00.0000, -9.479011394683574E+07, -1.235594569154392E+08, 3.699520016209672E+07,
2461379.500000000, A.D. 2026-Dec-05 00:00:00.0000, -8.106282527246387E+07, -1.306233211596424E+08, 3.991902863739251E+07,
2461386.500000000, A.D. 2026-Dec-12 00:00:00.0000, -6.635454430217081E+07, -1.361048837621636E+08, 4.235925036108261E+07,
2461393.500000000, A.D. 2026-Dec-19 00:00:00.0000, -5.081892411132706E+07, -1.398869508283503E+08, 4.427048666520748E+07,
2461400.500000000, A.D. 2026-Dec-26 00:00:00.0000, -3.462598432304285E+07, -1.418555625245635E+08, 4.560774085579807E+07,
2461407.500000000, A.D. 2027-Jan-02 00:00:00.0000, -1.796545535756817E+07, -1.419011738720096E+08, 4.632664888517939E+07,
2461414.500000000, A.D. 2027-Jan-09 00:00:00.0000, -1.050607218275020E+06, -1.399207646277271E+08, 4.638401778007456E+07,
2461421.500000000, A.D. 2027-Jan-16 00:00:00.0000, 1.587749291122310E+07, -1.358211908978150E+08, 4.573875787775564E+07,
2461428.500000000, A.D. 2027-Jan-23 00:00:00.0000, 3.254545472994937E+07, -1.295241900898402E+08, 4.435335226187256E+07,
2461435.500000000, A.D. 2027-Jan-30 00:00:00.0000, 4.864311421864086E+07, -1.209735539043155E+08, 4.219604870084701E+07,
2461442.500000000, A.D. 2027-Feb-06 00:00:00.0000, 6.381980185212711E+07, -1.101450620645670E+08, 3.924399802455076E+07,
2461449.500000000, A.D. 2027-Feb-13 00:00:00.0000, 7.768243032322657E+07, -9.705975952880976E+07, 3.548757935944540E+07,
2461456.500000000, A.D. 2027-Feb-20 00:00:00.0000, 8.979714242405044E+07, -8.180094775670773E+07, 3.093610868844647E+07,
2461463.500000000, A.D. 2027-Feb-27 00:00:00.0000, 9.969704624364656E+07, -6.453465326945949E+07, 2.562495738168602E+07,
2461470.500000000, A.D. 2027-Mar-06 00:00:00.0000, 1.068992815081547E+08, -4.553207730123713E+07, 1.962372162582390E+07,
2461477.500000000, A.D. 2027-Mar-13 00:00:00.0000, 1.109347934189889E+08, -2.519043417724678E+07, 1.304439441181929E+07,
2461484.500000000, A.D. 2027-Mar-20 00:00:00.0000, 1.113928601479746E+08, -4.045799300168921E+06, 6.047509590446812E+06,
2461491.500000000, A.D. 2027-Mar-27 00:00:00.0000, 1.079785925187344E+08, 1.723092236862689E+07, -1.156767105867875E+06,
2461498.500000000, A.D. 2027-Apr-03 00:00:00.0000, 1.005750323073763E+08, 3.786389948031063E+07, -8.315937599977738E+06,
2461505.500000000, A.D. 2027-Apr-10 00:00:00.0000, 8.929409536859511E+07, 5.703224119972820E+07, -1.515288482271039E+07,
2461512.500000000, A.D. 2027-Apr-17 00:00:00.0000, 7.449727083501236E+07, 7.395336576202345E+07, -2.139266191382417E+07,
2461519.500000000, A.D. 2027-Apr-24 00:00:00.0000, 5.677282124926978E+07, 8.797128255443512E+07, -2.679274923118498E+07,
2461526.500000000, A.D. 2027-May-01 00:00:00.0000, 3.687116600449746E+07, 9.862547595688353E+07, -3.116864093443643E+07,
2461533.500000000, A.D. 2027-May-08 00:00:00.0000, 1.561627535669063E+07, 1.056822331322499E+08, -3.440798278463739E+07,
2461540.500000000, A.D. 2027-May-15 00:00:00.0000, -6.181905914593243E+06, 1.091251527233145E+08, -3.647112139638629E+07,
2461547.500000000, A.D. 2027-May-22 00:00:00.0000, -2.779410241675003E+07, 1.091156787103120E+08, -3.738082299831650E+07,
2461554.500000000, A.D. 2027-May-29 00:00:00.0000, -4.860942952489617E+07, 1.059404884926196E+08, -3.720640926614996E+07,
2461561.500000000, A.D. 2027-Jun-05 00:00:00.0000, -6.814691264368656E+07, 9.996022580952533E+07, -3.604723288028078E+07,
2461568.500000000, A.D. 2027-Jun-12 00:00:00.0000, -8.604886647249739E+07, 9.156785909999168E+07, -3.401858042297529E+07,
2461575.500000000, A.D. 2027-Jun-19 00:00:00.0000, -1.020646250695742E+08, 8.115914165951298E+07, -3.124118319081549E+07,
2461582.500000000, A.D. 2027-Jun-26 00:00:00.0000, -1.160310368443368E+08, 6.911408472750895E+07, -2.783424568153083E+07,
2461589.500000000, A.D. 2027-Jul-03 00:00:00.0000, -1.278535962408527E+08, 5.578692192977545E+07, -2.391131859818868E+07,
2461596.500000000, A.D. 2027-Jul-10 00:00:00.0000, -1.374900666459463E+08, 4.150193246480407E+07, -1.957822114844337E+07,
2461603.500000000, A.D. 2027-Jul-17 00:00:00.0000, -1.449371690065720E+08, 2.655295808300889E+07, -1.493231854815410E+07,
2461610.500000000, A.D. 2027-Jul-24 00:00:00.0000, -1.502202307951681E+08, 1.120504551682512E+07, -1.006262991757789E+07,
2461617.500000000, A.D. 2027-Jul-31 00:00:00.0000, -1.533853994456399E+08, -4.302829932841287E+06, -5.050403289187796E+06,
2461624.500000000, A.D. 2027-Aug-07 00:00:00.0000, -1.544939514247438E+08, -1.975460977110911E+07, 3.007829765270744E+04,
2461631.500000000, A.D. 2027-Aug-14 00:00:00.0000, -1.536182606024208E+08, -3.495394836941689E+07, 5.110604899004715E+06,
2461638.500000000, A.D. 2027-Aug-21 00:00:00.0000, -1.508390570698251E+08, -4.972117074465697E+07, 1.012814606689911E+07,
2461645.500000000, A.D. 2027-Aug-28 00:00:00.0000, -1.462436828538076E+08, -6.389049238023426E+07, 1.502400125015908E+07,
2461652.500000000, A.D. 2027-Sep-04 00:00:00.0000, -1.399251272389894E+08, -7.730753895150179E+07, 1.974301715935266E+07,
2461659.500000000, A.D. 2027-Sep-11 00:00:00.0000, -1.319816850179688E+08, -8.982717480839679E+07, 2.423288159007858E+07,
2461666.500000000, A.D. 2027-Sep-18 00:00:00.0000, -1.225171286499012E+08, -1.013116356234377E+08, 2.844349635745010E+07,
2461673.500000000, A.D. 2027-Sep-25 00:00:00.0000, -1.116413248766424E+08, -1.116289584805270E+08, 3.232642991459153E+07,
2461680.500000000, A.D. 2027-Oct-02 00:00:00.0000, -9.947125792469503E+07, -1.206517090018875E+08, 3.583445135931847E+07,
2461687.500000000, A.D. 2027-Oct-09 00:00:00.0000, -8.613244652797955E+07, -1.282560180079511E+08, 3.892115104939634E+07,
2461694.500000000, A.D. 2027-Oct-16 00:00:00.0000, -7.176076177228826E+07, -1.343209590462736E+08, 4.154065838891158E+07,
2461701.500000000, A.D. 2027-Oct-23 00:00:00.0000, -5.650466670559804E+07, -1.387283244720820E+08, 4.364747446152435E+07,
2461708.500000000, A.D. 2027-Oct-30 00:00:00.0000, -4.052790596518020E+07, -1.413628939802242E+08, 4.519644826879383E+07,
2461715.500000000, A.D. 2027-Nov-06 00:00:00.0000, -2.401267385004293E+07, -1.421133370983136E+08, 4.614294252945571E+07,
2461722.500000000, A.D. 2027-Nov-13 00:00:00.0000, -7.163273962364270E+06, -1.408739549972054E+08, 4.644325688363844E+07,
2461729.500000000, A.D. 2027-Nov-20 00:00:00.0000, 9.789763327884842E+06, -1.375475440166264E+08, 4.605540307158500E+07,
2461736.500000000, A.D. 2027-Nov-27 00:00:00.0000, 2.658522232229392E+07, -1.320497522771455E+08, 4.494036138037879E+07,
2461743.500000000, A.D. 2027-Dec-04 00:00:00.0000, 4.292666657326105E+07, -1.243154068795849E+08, 4.306398848054260E+07,
2461750.500000000, A.D. 2027-Dec-11 00:00:00.0000, 5.847834517061789E+07, -1.143073837310373E+08, 4.039978791561828E+07,
2461757.500000000, A.D. 2027-Dec-18 00:00:00.0000, 7.286245683337072E+07, -1.020286242356258E+08, 3.693278218611795E+07,
2461764.500000000, A.D. 2027-Dec-25 00:00:00.0000, 8.565926367354323E+07, -8.753778047209495E+07, 3.266470919714406E+07,
2461771.500000000, A.D. 2028-Jan-01 00:00:00.0000, 9.641229177980326E+07, -7.096852976153594E+07, 2.762065113346380E+07,
$$EOE